[{"OBJECT_NAME":"ONEWEB-0567","OBJECT_ID":"2023-004H","EPOCH":"2026-05-08T03:35:56.340960","MEAN_MOTION":13.18684179,"ECCENTRICITY":0.0001463,"INCLINATION":87.9181,"RA_OF_ASC_NODE":343.44,"ARG_OF_PERICENTER":79.2093,"MEAN_ANOMALY":280.9204,"EPHEMERIS_TYPE":0,"CLASSIFICATION_TYPE":"U","NORAD_CAT_ID":55147,"ELEMENT_SET_NO":999,"REV_AT_EPOCH":16442,"BSTAR":-3.0614000000000005e-06,"MEAN_MOTION_DOT":1.2e-07,"MEAN_MOTION_DDOT":0.0},{"OBJECT_NAME":"ONEWEB-0569","OBJECT_ID":"2023-004J","EPOCH":"2026-05-08T02:11:07.914912","MEAN_MOTION":13.13471033,"ECCENTRICITY":0.0001408,"INCLINATION":87.8959,"RA_OF_ASC_NODE":328.2059,"ARG_OF_PERICENTER":55.4805,"MEAN_ANOMALY":304.6457,"EPHEMERIS_TYPE":0,"CLASSIFICATION_TYPE":"U","NORAD_CAT_ID":55148,"ELEMENT_SET_NO":999,"REV_AT_EPOCH":16491,"BSTAR":0.0006339599999999999,"MEAN_MOTION_DOT":2.44e-06,"MEAN_MOTION_DDOT":0.0},{"OBJECT_NAME":"ONEWEB-0570","OBJECT_ID":"2023-004K","EPOCH":"2026-05-08T03:23:50.937792","MEAN_MOTION":13.18686735,"ECCENTRICITY":0.0001624,"INCLINATION":87.9178,"RA_OF_ASC_NODE":343.4397,"ARG_OF_PERICENTER":97.2602,"MEAN_ANOMALY":262.8715,"EPHEMERIS_TYPE":0,"CLASSIFICATION_TYPE":"U","NORAD_CAT_ID":55149,"ELEMENT_SET_NO":999,"REV_AT_EPOCH":16441,"BSTAR":-0.00013477,"MEAN_MOTION_DOT":-4e-07,"MEAN_MOTION_DDOT":0.0},{"OBJECT_NAME":"ONEWEB-0571","OBJECT_ID":"2023-004L","EPOCH":"2026-05-08T03:14:07.992672","MEAN_MOTION":13.18686955,"ECCENTRICITY":7.95e-05,"INCLINATION":87.918,"RA_OF_ASC_NODE":343.44,"ARG_OF_PERICENTER":47.3106,"MEAN_ANOMALY":312.8093,"EPHEMERIS_TYPE":0,"CLASSIFICATION_TYPE":"U","NORAD_CAT_ID":55150,"ELEMENT_SET_NO":999,"REV_AT_EPOCH":16442,"BSTAR":1.0449000000000001e-05,"MEAN_MOTION_DOT":1.7e-07,"MEAN_MOTION_DDOT":0.0},{"OBJECT_NAME":"ONEWEB-0572","OBJECT_ID":"2023-004M","EPOCH":"2026-05-08T04:44:01.033152","MEAN_MOTION":13.17649407,"ECCENTRICITY":0.0001582,"INCLINATION":87.9171,"RA_OF_ASC_NODE":13.815,"ARG_OF_PERICENTER":80.3817,"MEAN_ANOMALY":279.7494,"EPHEMERIS_TYPE":0,"CLASSIFICATION_TYPE":"U","NORAD_CAT_ID":55151,"ELEMENT_SET_NO":999,"REV_AT_EPOCH":16221,"BSTAR":0.00024651,"MEAN_MOTION_DOT":1.09e-06,"MEAN_MOTION_DDOT":0.0},{"OBJECT_NAME":"ONEWEB-0573","OBJECT_ID":"2023-004N","EPOCH":"2026-05-08T03:04:24.007296","MEAN_MOTION":13.18686116,"ECCENTRICITY":9.65e-05,"INCLINATION":87.9178,"RA_OF_ASC_NODE":343.4429,"ARG_OF_PERICENTER":69.4332,"MEAN_ANOMALY":290.6904,"EPHEMERIS_TYPE":0,"CLASSIFICATION_TYPE":"U","NORAD_CAT_ID":55152,"ELEMENT_SET_NO":999,"REV_AT_EPOCH":16441,"BSTAR":-0.0006637699999999999,"MEAN_MOTION_DOT":-2.49e-06,"MEAN_MOTION_DDOT":0.0},{"OBJECT_NAME":"ONEWEB-0588","OBJECT_ID":"2023-004P","EPOCH":"2026-05-08T02:54:41.399136","MEAN_MOTION":13.186856,"ECCENTRICITY":0.0001508,"INCLINATION":87.9177,"RA_OF_ASC_NODE":343.4451,"ARG_OF_PERICENTER":100.073,"MEAN_ANOMALY":260.0572,"EPHEMERIS_TYPE":0,"CLASSIFICATION_TYPE":"U","NORAD_CAT_ID":55153,"ELEMENT_SET_NO":999,"REV_AT_EPOCH":16441,"BSTAR":4.1697000000000004e-05,"MEAN_MOTION_DOT":2.9e-07,"MEAN_MOTION_DDOT":0.0},{"OBJECT_NAME":"ONEWEB-0598","OBJECT_ID":"2023-004Q","EPOCH":"2026-05-08T06:10:10.603488","MEAN_MOTION":13.1141551,"ECCENTRICITY":0.0001379,"INCLINATION":87.8918,"RA_OF_ASC_NODE":29.0105,"ARG_OF_PERICENTER":57.1046,"MEAN_ANOMALY":303.0215,"EPHEMERIS_TYPE":0,"CLASSIFICATION_TYPE":"U","NORAD_CAT_ID":55154,"ELEMENT_SET_NO":999,"REV_AT_EPOCH":16066,"BSTAR":0.0011802,"MEAN_MOTION_DOT":4.31e-06,"MEAN_MOTION_DDOT":0.0},{"OBJECT_NAME":"ONEWEB-0599","OBJECT_ID":"2023-004R","EPOCH":"2026-05-08T05:37:28.654752","MEAN_MOTION":13.17650134,"ECCENTRICITY":0.0001889,"INCLINATION":87.9171,"RA_OF_ASC_NODE":13.8062,"ARG_OF_PERICENTER":74.4054,"MEAN_ANOMALY":285.7286,"EPHEMERIS_TYPE":0,"CLASSIFICATION_TYPE":"U","NORAD_CAT_ID":55155,"ELEMENT_SET_NO":999,"REV_AT_EPOCH":16222,"BSTAR":4.7994e-05,"MEAN_MOTION_DOT":3.2e-07,"MEAN_MOTION_DDOT":0.0},{"OBJECT_NAME":"ONEWEB-0614","OBJECT_ID":"2023-004S","EPOCH":"2026-05-08T06:02:49.768224","MEAN_MOTION":13.11418671,"ECCENTRICITY":0.0001878,"INCLINATION":87.8918,"RA_OF_ASC_NODE":29.0203,"ARG_OF_PERICENTER":85.0943,"MEAN_ANOMALY":275.04,"EPHEMERIS_TYPE":0,"CLASSIFICATION_TYPE":"U","NORAD_CAT_ID":55156,"ELEMENT_SET_NO":999,"REV_AT_EPOCH":16060,"BSTAR":0.0016589999999999999,"MEAN_MOTION_DOT":6.01e-06,"MEAN_MOTION_DDOT":0.0},{"OBJECT_NAME":"ONEWEB-0616","OBJECT_ID":"2023-004T","EPOCH":"2026-05-08T04:48:52.479360","MEAN_MOTION":13.17648986,"ECCENTRICITY":0.0002489,"INCLINATION":87.9172,"RA_OF_ASC_NODE":13.8158,"ARG_OF_PERICENTER":63.966,"MEAN_ANOMALY":296.1728,"EPHEMERIS_TYPE":0,"CLASSIFICATION_TYPE":"U","NORAD_CAT_ID":55157,"ELEMENT_SET_NO":999,"REV_AT_EPOCH":16243,"BSTAR":-0.00022359000000000002,"MEAN_MOTION_DOT":-7.4e-07,"MEAN_MOTION_DDOT":0.0},{"OBJECT_NAME":"ONEWEB-0617","OBJECT_ID":"2023-004U","EPOCH":"2026-05-08T05:45:43.269696","MEAN_MOTION":13.11421013,"ECCENTRICITY":0.0001706,"INCLINATION":87.8922,"RA_OF_ASC_NODE":29.0118,"ARG_OF_PERICENTER":91.9442,"MEAN_ANOMALY":268.1882,"EPHEMERIS_TYPE":0,"CLASSIFICATION_TYPE":"U","NORAD_CAT_ID":55158,"ELEMENT_SET_NO":999,"REV_AT_EPOCH":16062,"BSTAR":0.0013979,"MEAN_MOTION_DOT":5.08e-06,"MEAN_MOTION_DDOT":0.0},{"OBJECT_NAME":"ONEWEB-0618","OBJECT_ID":"2023-004V","EPOCH":"2026-05-08T05:49:05.859552","MEAN_MOTION":15.12824908,"ECCENTRICITY":0.001553,"INCLINATION":86.9137,"RA_OF_ASC_NODE":193.8402,"ARG_OF_PERICENTER":86.5895,"MEAN_ANOMALY":273.7121,"EPHEMERIS_TYPE":0,"CLASSIFICATION_TYPE":"U","NORAD_CAT_ID":55159,"ELEMENT_SET_NO":999,"REV_AT_EPOCH":17622,"BSTAR":0.00027906,"MEAN_MOTION_DOT":4.946e-05,"MEAN_MOTION_DDOT":0.0},{"OBJECT_NAME":"ONEWEB-0619","OBJECT_ID":"2023-004W","EPOCH":"2026-05-08T05:35:02.426208","MEAN_MOTION":13.17649748,"ECCENTRICITY":0.0002236,"INCLINATION":87.9181,"RA_OF_ASC_NODE":13.7869,"ARG_OF_PERICENTER":87.2689,"MEAN_ANOMALY":272.8699,"EPHEMERIS_TYPE":0,"CLASSIFICATION_TYPE":"U","NORAD_CAT_ID":55160,"ELEMENT_SET_NO":999,"REV_AT_EPOCH":16233,"BSTAR":-0.00037251,"MEAN_MOTION_DOT":-1.32e-06,"MEAN_MOTION_DDOT":0.0},{"OBJECT_NAME":"ONEWEB-0620","OBJECT_ID":"2023-004X","EPOCH":"2026-05-08T05:38:24.055296","MEAN_MOTION":13.11421221,"ECCENTRICITY":0.000148,"INCLINATION":87.8919,"RA_OF_ASC_NODE":29.0232,"ARG_OF_PERICENTER":77.8723,"MEAN_ANOMALY":282.2571,"EPHEMERIS_TYPE":0,"CLASSIFICATION_TYPE":"U","NORAD_CAT_ID":55161,"ELEMENT_SET_NO":999,"REV_AT_EPOCH":16059,"BSTAR":0.0005933199999999999,"MEAN_MOTION_DOT":2.23e-06,"MEAN_MOTION_DDOT":0.0},{"OBJECT_NAME":"ONEWEB-0621","OBJECT_ID":"2023-004Y","EPOCH":"2026-05-08T06:17:27.784032","MEAN_MOTION":13.11417366,"ECCENTRICITY":0.0001892,"INCLINATION":87.8927,"RA_OF_ASC_NODE":29.0031,"ARG_OF_PERICENTER":86.6909,"MEAN_ANOMALY":273.4436,"EPHEMERIS_TYPE":0,"CLASSIFICATION_TYPE":"U","NORAD_CAT_ID":55162,"ELEMENT_SET_NO":999,"REV_AT_EPOCH":16057,"BSTAR":0.0009304000000000001,"MEAN_MOTION_DOT":3.42e-06,"MEAN_MOTION_DDOT":0.0},{"OBJECT_NAME":"ONEWEB-0622","OBJECT_ID":"2023-004Z","EPOCH":"2026-05-08T06:24:47.221344","MEAN_MOTION":13.11417632,"ECCENTRICITY":0.000151,"INCLINATION":87.8927,"RA_OF_ASC_NODE":29.0041,"ARG_OF_PERICENTER":103.9086,"MEAN_ANOMALY":256.221,"EPHEMERIS_TYPE":0,"CLASSIFICATION_TYPE":"U","NORAD_CAT_ID":55163,"ELEMENT_SET_NO":999,"REV_AT_EPOCH":16056,"BSTAR":0.00058843,"MEAN_MOTION_DOT":2.21e-06,"MEAN_MOTION_DDOT":0.0},{"OBJECT_NAME":"ONEWEB-0623","OBJECT_ID":"2023-004AA","EPOCH":"2026-05-08T05:27:44.957952","MEAN_MOTION":13.17649932,"ECCENTRICITY":0.0002071,"INCLINATION":87.9167,"RA_OF_ASC_NODE":13.8228,"ARG_OF_PERICENTER":103.0686,"MEAN_ANOMALY":257.0677,"EPHEMERIS_TYPE":0,"CLASSIFICATION_TYPE":"U","NORAD_CAT_ID":55164,"ELEMENT_SET_NO":999,"REV_AT_EPOCH":16232,"BSTAR":6.651000000000001e-05,"MEAN_MOTION_DOT":3.9e-07,"MEAN_MOTION_DDOT":0.0},{"OBJECT_NAME":"ONEWEB-0624","OBJECT_ID":"2023-004AB","EPOCH":"2026-05-08T04:26:36.515040","MEAN_MOTION":13.1292628,"ECCENTRICITY":0.0001806,"INCLINATION":87.8978,"RA_OF_ASC_NODE":358.5449,"ARG_OF_PERICENTER":88.1984,"MEAN_ANOMALY":271.9352,"EPHEMERIS_TYPE":0,"CLASSIFICATION_TYPE":"U","NORAD_CAT_ID":55165,"ELEMENT_SET_NO":999,"REV_AT_EPOCH":16282,"BSTAR":7.4293e-05,"MEAN_MOTION_DOT":4e-07,"MEAN_MOTION_DDOT":0.0},{"OBJECT_NAME":"ONEWEB-0625","OBJECT_ID":"2023-004AC","EPOCH":"2026-05-08T05:13:10.319520","MEAN_MOTION":13.1764983,"ECCENTRICITY":0.0001813,"INCLINATION":87.9167,"RA_OF_ASC_NODE":13.8197,"ARG_OF_PERICENTER":82.7852,"MEAN_ANOMALY":277.3485,"EPHEMERIS_TYPE":0,"CLASSIFICATION_TYPE":"U","NORAD_CAT_ID":55166,"ELEMENT_SET_NO":999,"REV_AT_EPOCH":16231,"BSTAR":-0.00035613,"MEAN_MOTION_DOT":-1.25e-06,"MEAN_MOTION_DDOT":0.0},{"OBJECT_NAME":"ONEWEB-0626","OBJECT_ID":"2023-004AD","EPOCH":"2026-05-08T04:58:35.007168","MEAN_MOTION":13.17649276,"ECCENTRICITY":0.0001412,"INCLINATION":87.9169,"RA_OF_ASC_NODE":13.8215,"ARG_OF_PERICENTER":73.0002,"MEAN_ANOMALY":287.1285,"EPHEMERIS_TYPE":0,"CLASSIFICATION_TYPE":"U","NORAD_CAT_ID":55167,"ELEMENT_SET_NO":999,"REV_AT_EPOCH":16231,"BSTAR":0.00010825,"MEAN_MOTION_DOT":5.5e-07,"MEAN_MOTION_DDOT":0.0},{"OBJECT_NAME":"ONEWEB-0627","OBJECT_ID":"2023-004AE","EPOCH":"2026-05-08T04:41:35.127744","MEAN_MOTION":13.17649735,"ECCENTRICITY":0.0002,"INCLINATION":87.9171,"RA_OF_ASC_NODE":13.824,"ARG_OF_PERICENTER":97.3768,"MEAN_ANOMALY":262.7591,"EPHEMERIS_TYPE":0,"CLASSIFICATION_TYPE":"U","NORAD_CAT_ID":55168,"ELEMENT_SET_NO":999,"REV_AT_EPOCH":16231,"BSTAR":0.00023417,"MEAN_MOTION_DOT":1.04e-06,"MEAN_MOTION_DDOT":0.0},{"OBJECT_NAME":"ONEWEB-0628","OBJECT_ID":"2023-004AF","EPOCH":"2026-05-08T03:38:35.312640","MEAN_MOTION":13.12445684,"ECCENTRICITY":0.0002182,"INCLINATION":87.898,"RA_OF_ASC_NODE":358.6117,"ARG_OF_PERICENTER":100.4254,"MEAN_ANOMALY":259.712,"EPHEMERIS_TYPE":0,"CLASSIFICATION_TYPE":"U","NORAD_CAT_ID":55169,"ELEMENT_SET_NO":999,"REV_AT_EPOCH":16278,"BSTAR":0.0007019400000000001,"MEAN_MOTION_DOT":2.65e-06,"MEAN_MOTION_DDOT":0.0}]